#aV2011  1 11  0  0   .00000000      96 DD+AD WGS84 FIT  NGA
## 1618 172800.00000000   900.00000000 55572  .0000000000000
+   32     1  2  3  4  5  6  7  8  9 10 11 12 13 14 15 16 17
+         18 19 20 21 22 23 24 25 26 27 28 29 30 31 32  0  0
+          0  0  0  0  0  0  0  0  0  0  0  0  0  0  0  0  0
+          0  0  0  0  0  0  0  0  0  0  0  0  0  0  0  0  0
+          0  0  0  0  0  0  0  0  0  0  0  0  0  0  0  0  0
++         0  0  0  0  0  0  0  0  0  0  0  0  0  0  0  0  0
++         0  0  0  0  0  0  0  0  0  0  0  0  0  0  0  0  0
++         0  0  0  0  0  0  0  0  0  0  0  0  0  0  0  0  0
++         0  0  0  0  0  0  0  0  0  0  0  0  0  0  0  0  0
++         0  0  0  0  0  0  0  0  0  0  0  0  0  0  0  0  0
%c cc cc ccc ccc cccc cccc cccc cccc ccccc ccccc ccccc ccccc
%c cc cc ccc ccc cccc cccc cccc cccc ccccc ccccc ccccc ccccc
%f  0.0000000  0.000000000  0.00000000000  0.000000000000000
%f  0.0000000  0.000000000  0.00000000000  0.000000000000000
%i    0    0    0    0      0      0      0      0         0
%i    0    0    0    0      0      0      0      0         0
/*      NGA, ST. LOUIS,MO.                                  
/*   EPHEMERIS COMPUTED FROM  3 DAYS OF DATA                
/* CCCCCCCCCCCCCCCCCCCCCCCCCCCCCCCCCCCCCCCCCCCCCCCCCCCCCCCCC
/* CCCCCCCCCCCCCCCCCCCCCCCCCCCCCCCCCCCCCCCCCCCCCCCCCCCCCCCCC
*  2011  1 11 18 45   .00000000                                                 
P  1 -18681.172158    399.669381  18813.386544   -199.229056                    
V  1 -16818.051391 -17255.534302 -16107.827180      -.032284                    
P  2  21107.243097 -13338.662292   8330.308048    314.110221                    
V  2  11328.778091     94.202586 -29067.144175       .021674                    
P  3 -10433.396289  21372.921523  11078.833023    661.153115                    
V  3  -2145.998692 -15143.259652  26564.809158       .051453                    
P  4  25915.759122  -6358.163436  -2134.573743      6.060153                    
V  4  -1394.938929   3784.534223 -30859.573666       .099574                    
P  5   9131.220189 -12371.155211  21632.987573    -97.290674                    
V  5  20412.743915  18485.737991   2054.675007      -.059489                    
P  6 -13856.286021  17413.394397  14514.506585-325013.012286                    
V  6    403.534016 -18502.226939  23028.710927      -.310208                    
P  7  17297.410546   7983.556588  18597.279113      1.663244                    
V  7 -22147.360887   7935.105458  17002.584668       .005955                    
P  8  24738.124272   1304.641428  10319.741963      7.146089                    
V  8 -12298.185329   3907.981517  28507.684128       .000154                    
P  9   2794.494920 -16068.979378 -21503.883835     54.711594                    
V  9  24810.235467  -7756.815092   9269.289636       .024345                    
P 10  19849.293430   1790.213273  17526.466219    -62.967875                    
V 10  15046.358512  16887.010839 -18182.198647      -.011039                    
P 11   1035.847054  18087.658837 -19645.635925   -118.484539                    
V 11 -22015.099865  11354.809846   9804.272657      -.030799                    
P 12  -6226.110760 -20602.156783 -15629.837764    -36.675438                    
V 12  15462.173114  12506.442137 -22437.887747       .033353                    
P 13   7418.205861  17265.319664  18615.428532    286.228716                    
V 13  -8059.697175  22488.043767 -17561.328187      -.012542                    
P 14 -15224.247031   1193.504923 -21554.057457    122.987537                    
V 14   7082.488886 -26784.411625  -6566.040071       .029569                    
P 15   2458.311126 -26043.849939  -4063.482450   -162.278836                    
V 15   4184.443698  -4453.262742  31087.206498       .038446                    
P 16 -12602.016599   8406.168141  21870.894865   -141.873002                    
V 16 -19565.832610 -19500.293355  -3505.498832      -.030575                    
P 17  15317.002036    857.516370 -21546.194967    181.480559                    
V 17  -6436.298012  26904.356345  -3707.224881       .006803                    
P 18 -20655.118452 -16676.385570  -3094.395995    115.391632                    
V 18   -774.583143  -5340.795213  30598.885116       .020967                    
P 19  -7670.966390  25234.663313   -360.522597   -100.562044                    
V 19  -3175.542715   -510.018487  31918.767794      -.035859                    
P 20  10566.473244  21139.711004 -12334.923853     48.813335                    
V 20 -13605.572792  -7911.214999 -25445.640956      -.000902                    
P 21 -18813.262925  -8050.579512  17617.250922   -115.954340                    
V 21  20127.344783  -7776.125601  17709.419881      -.027324                    
P 22 -21739.613022  -7324.116902 -13300.826370    155.308834                    
V 22 -10338.962135 -14039.298169  24231.188348      -.006625                    
P 23   1190.042096  24455.430110   9859.140656    332.788175                    
V 23  -5474.428615  11674.798874 -28618.316995      -.022780                    
P 24   -215.709221  15796.883502 -21262.408223    355.667658                    
V 24 -26542.757934   6060.119070   5017.549258       .031692                    
P 25 -17764.082809 -19408.227076  -3654.795653    -63.053748                    
V 25   5262.330382   1062.897597 -31340.023432      -.020420                    
P 26  11910.818897 -22040.820654   7566.519752    -93.795329                    
V 26   -888.390241  10683.642969  30655.042520      -.091193                    
P 27   9785.773318 -16259.400851 -17792.878624    225.973905                    
V 27  23128.258179  -6712.441361  18430.193329       .037616                    
P 28  21482.116600  11400.588774 -10493.121913     14.048613                    
V 28   8416.074474  11339.388674  27925.910732       .019103                    
P 29  -7096.200411 -19305.257584  16902.419100    177.323424                    
V 29   7118.581596 -20147.788692 -20079.567520       .027121                    
P 30 -18315.786546   1716.912540  18764.355551    312.606713                    
V 30 -17847.873452 -17122.125214 -15499.130230       .032993                    
P 31 -25431.211988   8023.892063    491.181938     28.614908                    
V 31   -946.759121  -1892.366512 -32005.831812       .042108                    
P 32   1676.416289  19994.629340 -17299.313507   -172.933176                    
V 32 -16274.757788 -15502.438894 -18774.277654      -.081157                    
EOF
